[{"OBJECT_NAME":"GHGSAT-C4","OBJECT_ID":"2022-057Q","EPOCH":"2026-03-09T22:58:28.655904","MEAN_MOTION":15.3293316,"ECCENTRICITY":0.0007552,"INCLINATION":97.6357,"RA_OF_ASC_NODE":210.0193,"ARG_OF_PERICENTER":100.0033,"MEAN_ANOMALY":260.2061,"EPHEMERIS_TYPE":0,"CLASSIFICATION_TYPE":"U","NORAD_CAT_ID":52746,"ELEMENT_SET_NO":999,"REV_AT_EPOCH":21033,"BSTAR":0.00030289005,"MEAN_MOTION_DOT":9.562e-5,"MEAN_MOTION_DDOT":0},{"OBJECT_NAME":"OPS 6432","OBJECT_ID":"1983-056A","EPOCH":"2026-03-09T09:42:49.398624","MEAN_MOTION":13.88372019,"ECCENTRICITY":0.06998718,"INCLINATION":63.303,"RA_OF_ASC_NODE":88.4155,"ARG_OF_PERICENTER":131.4024,"MEAN_ANOMALY":234.9391,"EPHEMERIS_TYPE":0,"CLASSIFICATION_TYPE":"U","NORAD_CAT_ID":14112,"ELEMENT_SET_NO":999,"REV_AT_EPOCH":9444,"BSTAR":0.00034445981,"MEAN_MOTION_DOT":3.135e-5,"MEAN_MOTION_DDOT":0}]
